start=new Date('2022-03-23T00:00:00.000Z').valueOf();
sats=[{"BSTAR":"-0.00012713000000","LAUNCH_DATE":"2020-10-06","TIME_SYSTEM":"UTC","RCS_SIZE":"LARGE","NORAD_CAT_ID":"46543","PERIAPSIS":"546.071","CENTER_NAME":"EARTH","EPOCH":"2022-03-22T14:44:59.817408","RA_OF_ASC_NODE":"197.2716","TLE_LINE2":"2 46543  53.0537 197.2716 0001676  52.1907 307.9234 15.06394214 81242","MEAN_MOTION":"15.06394214","FILE":"3369829","INCLINATION":"53.0537","ELEMENT_SET_NO":"999","SEMIMAJOR_AXIS":"6925.366","PERIOD":"95.593","OBJECT_NAME":"STARLINK-1693","ECCENTRICITY":"0.00016760","OBJECT_TYPE":"PAYLOAD","APOAPSIS":"548.392","TLE_LINE1":"1 46543U 20070M   22081.61458122 -.00002174  00000-0 -12713-3 0  9996","CLASSIFICATION_TYPE":"U","MEAN_MOTION_DDOT":"0.0000000000000","MEAN_ANOMALY":"307.9234","EPHEMERIS_TYPE":"0","COUNTRY_CODE":"US","MEAN_ELEMENT_THEORY":"SGP4","DECAY_DATE":null,"SITE":"AFETR","GP_ID":"199396134","REF_FRAME":"TEME","REV_AT_EPOCH":"8124","ARG_OF_PERICENTER":"52.1907","MEAN_MOTION_DOT":"-0.00002174","OBJECT_ID":"2020-070M"},{"DECAY_DATE":null,"GP_ID":"199405623","SITE":"AFETR","REV_AT_EPOCH":"8148","REF_FRAME":"TEME","OBJECT_ID":"2020-070N","ARG_OF_PERICENTER":"77.4132","MEAN_MOTION_DOT":"-0.00003802","OBJECT_TYPE":"PAYLOAD","MEAN_MOTION_DDOT":"0.0000000000000","MEAN_ANOMALY":"282.7008","CLASSIFICATION_TYPE":"U","TLE_LINE1":"1 46544U 20070N   22081.74312868 -.00003802  00000-0 -23639-3 0  9995","APOAPSIS":"548.112","COUNTRY_CODE":"US","EPHEMERIS_TYPE":"0","MEAN_ELEMENT_THEORY":"SGP4","FILE":"3370113","MEAN_MOTION":"15.06413581","TLE_LINE2":"2 46544  53.0548 181.7074 0001358  77.4132 282.7008 15.06413581 81481","RA_OF_ASC_NODE":"181.7074","PERIOD":"95.591","SEMIMAJOR_AXIS":"6925.307","ELEMENT_SET_NO":"999","INCLINATION":"53.0548","ECCENTRICITY":"0.00013580","OBJECT_NAME":"STARLINK-1694","LAUNCH_DATE":"2020-10-06","BSTAR":"-0.00023639000000","NORAD_CAT_ID":"46544","RCS_SIZE":"LARGE","TIME_SYSTEM":"UTC","EPOCH":"2022-03-22T17:50:06.317952","CENTER_NAME":"EARTH","PERIAPSIS":"546.231"},{"BSTAR":"0.00002081300000","LAUNCH_DATE":"2020-10-06","NORAD_CAT_ID":"46545","TIME_SYSTEM":"UTC","RCS_SIZE":"LARGE","CENTER_NAME":"EARTH","EPOCH":"2022-03-22T17:13:37.312608","PERIAPSIS":"546.183","MEAN_MOTION":"15.06388589","FILE":"3370190","RA_OF_ASC_NODE":"196.8305","TLE_LINE2":"2 46545  53.0554 196.8305 0001539  76.7561 283.3600 15.06388589 81251","PERIOD":"95.593","INCLINATION":"53.0554","ELEMENT_SET_NO":"999","SEMIMAJOR_AXIS":"6925.384","ECCENTRICITY":"0.00015390","OBJECT_NAME":"STARLINK-1696","OBJECT_TYPE":"PAYLOAD","CLASSIFICATION_TYPE":"U","TLE_LINE1":"1 46545U 20070P   22081.71779297  .00000028  00000-0  20813-4 0  9993","MEAN_MOTION_DDOT":"0.0000000000000","MEAN_ANOMALY":"283.3600","APOAPSIS":"548.314","COUNTRY_CODE":"US","EPHEMERIS_TYPE":"0","MEAN_ELEMENT_THEORY":"SGP4","DECAY_DATE":null,"GP_ID":"199428394","SITE":"AFETR","REV_AT_EPOCH":"8125","REF_FRAME":"TEME","MEAN_MOTION_DOT":"0.00000028","ARG_OF_PERICENTER":"76.7561","OBJECT_ID":"2020-070P"},{"COUNTRY_CODE":"US","EPHEMERIS_TYPE":"0","MEAN_ELEMENT_THEORY":"SGP4","OBJECT_TYPE":"PAYLOAD","MEAN_ANOMALY":"300.6445","MEAN_MOTION_DDOT":"0.0000000000000","CLASSIFICATION_TYPE":"U","TLE_LINE1":"1 46546U 20070Q   22081.63669463 -.00000149  00000-0  88997-5 0  9991","APOAPSIS":"548.303","REV_AT_EPOCH":"8124","REF_FRAME":"TEME","OBJECT_ID":"2020-070Q","ARG_OF_PERICENTER":"59.4699","MEAN_MOTION_DOT":"-0.00000149","DECAY_DATE":null,"GP_ID":"199429145","SITE":"AFETR","EPOCH":"2022-03-22T15:16:50.416032","CENTER_NAME":"EARTH","PERIAPSIS":"546.125","LAUNCH_DATE":"2020-10-06","BSTAR":"0.00000889970000","NORAD_CAT_ID":"46546","RCS_SIZE":"LARGE","TIME_SYSTEM":"UTC","PERIOD":"95.592","SEMIMAJOR_AXIS":"6925.349","INCLINATION":"53.0540","ELEMENT_SET_NO":"999","ECCENTRICITY":"0.00015720","OBJECT_NAME":"STARLINK-1697","FILE":"3370190","MEAN_MOTION":"15.06399873","TLE_LINE2":"2 46546  53.0540 197.1736 0001572  59.4699 300.6445 15.06399873 81243","RA_OF_ASC_NODE":"197.1736"},{"REF_FRAME":"TEME","REV_AT_EPOCH":"8127","ARG_OF_PERICENTER":"70.9298","MEAN_MOTION_DOT":"-0.00002800","OBJECT_ID":"2020-070R","DECAY_DATE":null,"SITE":"AFETR","GP_ID":"199427396","EPHEMERIS_TYPE":"0","COUNTRY_CODE":"US","MEAN_ELEMENT_THEORY":"SGP4","OBJECT_TYPE":"PAYLOAD","APOAPSIS":"548.319","CLASSIFICATION_TYPE":"U","TLE_LINE1":"1 46547U 20070R   22081.79888033 -.00002800  00000-0 -16922-3 0  9999","MEAN_MOTION_DDOT":"0.0000000000000","MEAN_ANOMALY":"289.1859","ELEMENT_SET_NO":"999","INCLINATION":"53.0535","SEMIMAJOR_AXIS":"6925.377","PERIOD":"95.593","ECCENTRICITY":"0.00015550","OBJECT_NAME":"STARLINK-1698","RA_OF_ASC_NODE":"196.4488","TLE_LINE2":"2 46547  53.0535 196.4488 0001555  70.9298 289.1859 15.06390808 81270","MEAN_MOTION":"15.06390808","FILE":"3370190","PERIAPSIS":"546.165","CENTER_NAME":"EARTH","EPOCH":"2022-03-22T19:10:23.260512","BSTAR":"-0.00016922000000","LAUNCH_DATE":"2020-10-06","TIME_SYSTEM":"UTC","RCS_SIZE":"LARGE","NORAD_CAT_ID":"46547"},{"PERIAPSIS":"546.200","CENTER_NAME":"EARTH","EPOCH":"2022-03-22T14:39:41.861952","RCS_SIZE":"LARGE","TIME_SYSTEM":"UTC","NORAD_CAT_ID":"46548","BSTAR":"-0.00001928200000","LAUNCH_DATE":"2020-10-06","OBJECT_NAME":"STARLINK-1699","ECCENTRICITY":"0.00014820","ELEMENT_SET_NO":"999","INCLINATION":"53.0538","SEMIMAJOR_AXIS":"6925.361","PERIOD":"95.592","RA_OF_ASC_NODE":"197.3007","TLE_LINE2":"2 46548  53.0538 197.3007 0001482  56.5224 303.5907 15.06395784 81249","MEAN_MOTION":"15.06395784","FILE":"3369829","MEAN_ELEMENT_THEORY":"SGP4","EPHEMERIS_TYPE":"0","COUNTRY_CODE":"US","APOAPSIS":"548.253","CLASSIFICATION_TYPE":"U","TLE_LINE1":"1 46548U 20070S   22081.61090118 -.00000569  00000-0 -19282-4 0  9993","MEAN_ANOMALY":"303.5907","MEAN_MOTION_DDOT":"0.0000000000000","OBJECT_TYPE":"PAYLOAD","MEAN_MOTION_DOT":"-0.00000569","ARG_OF_PERICENTER":"56.5224","OBJECT_ID":"2020-070S","REF_FRAME":"TEME","REV_AT_EPOCH":"8124","SITE":"AFETR","GP_ID":"199394883","DECAY_DATE":null},{"DECAY_DATE":null,"GP_ID":"199428895","SITE":"AFETR","REV_AT_EPOCH":"8127","REF_FRAME":"TEME","MEAN_MOTION_DOT":"-0.00002384","ARG_OF_PERICENTER":"66.1094","OBJECT_ID":"2020-070T","OBJECT_TYPE":"PAYLOAD","TLE_LINE1":"1 46549U 20070T   22081.83944771 -.00002384  00000-0 -14129-3 0  9992","CLASSIFICATION_TYPE":"U","MEAN_ANOMALY":"294.0054","MEAN_MOTION_DDOT":"0.0000000000000","APOAPSIS":"548.333","COUNTRY_CODE":"US","EPHEMERIS_TYPE":"0","MEAN_ELEMENT_THEORY":"SGP4","MEAN_MOTION":"15.06379329","FILE":"3370190","RA_OF_ASC_NODE":"196.2613","TLE_LINE2":"2 46549  53.0534 196.2613 0001525  66.1094 294.0054 15.06379329 81274","PERIOD":"95.593","INCLINATION":"53.0534","ELEMENT_SET_NO":"999","SEMIMAJOR_AXIS":"6925.412","ECCENTRICITY":"0.00015250","OBJECT_NAME":"STARLINK-1700","BSTAR":"-0.00014129000000","LAUNCH_DATE":"2020-10-06","NORAD_CAT_ID":"46549","RCS_SIZE":"LARGE","TIME_SYSTEM":"UTC","CENTER_NAME":"EARTH","EPOCH":"2022-03-22T20:08:48.282144","PERIAPSIS":"546.221"},{"PERIOD":"95.593","SEMIMAJOR_AXIS":"6925.388","INCLINATION":"53.0547","ELEMENT_SET_NO":"999","OBJECT_NAME":"STARLINK-1701","ECCENTRICITY":"0.00015450","FILE":"3369829","MEAN_MOTION":"15.06387162","TLE_LINE2":"2 46550  53.0547 197.8283 0001545  57.5203 302.5935 15.06387162 81220","RA_OF_ASC_NODE":"197.8283","EPOCH":"2022-03-22T11:49:51.356064","CENTER_NAME":"EARTH","PERIAPSIS":"546.183","LAUNCH_DATE":"2020-10-06","BSTAR":"0.00003052600000","NORAD_CAT_ID":"46550","RCS_SIZE":"LARGE","TIME_SYSTEM":"UTC","REF_FRAME":"TEME","REV_AT_EPOCH":"8122","OBJECT_ID":"2020-070U","MEAN_MOTION_DOT":"0.00000173","ARG_OF_PERICENTER":"57.5203","DECAY_DATE":null,"GP_ID":"199396379","SITE":"AFETR","COUNTRY_CODE":"US","EPHEMERIS_TYPE":"0","MEAN_ELEMENT_THEORY":"SGP4","OBJECT_TYPE":"PAYLOAD","MEAN_ANOMALY":"302.5935","MEAN_MOTION_DDOT":"0.0000000000000","CLASSIFICATION_TYPE":"U","TLE_LINE1":"1 46550U 20070U   22081.49295551  .00000173  00000-0  30526-4 0  9993","APOAPSIS":"548.323"},{"RCS_SIZE":"LARGE","TIME_SYSTEM":"UTC","NORAD_CAT_ID":"46552","LAUNCH_DATE":"2020-10-06","BSTAR":"-0.00010290000000","PERIAPSIS":"546.274","EPOCH":"2022-03-22T10:50:48.843744","CENTER_NAME":"EARTH","TLE_LINE2":"2 46552  53.0542 183.0009 0001437  68.4254 291.6888 15.06381813 81432","RA_OF_ASC_NODE":"183.0009","FILE":"3369829","MEAN_MOTION":"15.06381813","OBJECT_NAME":"STARLINK-1649","ECCENTRICITY":"0.00014370","SEMIMAJOR_AXIS":"6925.404","INCLINATION":"53.0542","ELEMENT_SET_NO":"999","PERIOD":"95.593","APOAPSIS":"548.264","MEAN_ANOMALY":"291.6888","MEAN_MOTION_DDOT":"0.0000000000000","TLE_LINE1":"1 46552U 20070W   22081.45195421 -.00001813  00000-0 -10290-3 0  9995","CLASSIFICATION_TYPE":"U","OBJECT_TYPE":"PAYLOAD","MEAN_ELEMENT_THEORY":"SGP4","EPHEMERIS_TYPE":"0","COUNTRY_CODE":"US","SITE":"AFETR","GP_ID":"199396135","DECAY_DATE":null,"OBJECT_ID":"2020-070W","ARG_OF_PERICENTER":"68.4254","MEAN_MOTION_DOT":"-0.00001813","REF_FRAME":"TEME","REV_AT_EPOCH":"8143"},{"CENTER_NAME":"EARTH","EPOCH":"2022-03-22T17:53:23.927712","PERIAPSIS":"546.204","BSTAR":"-0.00006935200000","LAUNCH_DATE":"2020-10-06","NORAD_CAT_ID":"46553","RCS_SIZE":"LARGE","TIME_SYSTEM":"UTC","PERIOD":"95.592","ELEMENT_SET_NO":"999","INCLINATION":"53.0542","SEMIMAJOR_AXIS":"6925.365","ECCENTRICITY":"0.00014820","OBJECT_NAME":"STARLINK-1664","MEAN_MOTION":"15.06394475","FILE":"3370190","RA_OF_ASC_NODE":"166.6938","TLE_LINE2":"2 46553  53.0542 166.6938 0001482  67.9386 292.1760 15.06394475 81681","COUNTRY_CODE":"US","EPHEMERIS_TYPE":"0","MEAN_ELEMENT_THEORY":"SGP4","OBJECT_TYPE":"PAYLOAD","CLASSIFICATION_TYPE":"U","TLE_LINE1":"1 46553U 20070X   22081.74541583 -.00001314  00000-0 -69352-4 0  9992","MEAN_MOTION_DDOT":"0.0000000000000","MEAN_ANOMALY":"292.1760","APOAPSIS":"548.257","REF_FRAME":"TEME","REV_AT_EPOCH":"8168","ARG_OF_PERICENTER":"67.9386","MEAN_MOTION_DOT":"-0.00001314","OBJECT_ID":"2020-070X","DECAY_DATE":null,"GP_ID":"199427646","SITE":"AFETR"}];
